{"type": "FeatureCollection", "features": [ {"type": "Feature", "properties": {"norad_id": 32184, "name": "FENGYUN 1C DEB", "group": "fengyun-1c-debris", "lat": 27.54212332145668, "lon": 120.59929854455216, "alt_km": 395.1065680080801, "timestamp": "2025-12-11T15:53:39.828422+00:00", "meta": {"OBJECT_NAME": "FENGYUN 1C DEB", "OBJECT_ID": "1999-025CUE", "EPOCH": "2025-12-11T03:19:44.135328", "MEAN_MOTION": 15.43488956, "ECCENTRICITY": 0.00712325, "INCLINATION": 98.1196, "RA_OF_ASC_NODE": 124.2855, "ARG_OF_PERICENTER": 353.8696, "MEAN_ANOMALY": 6.167, "EPHEMERIS_TYPE": 0, "CLASSIFICATION_TYPE": "U", "NORAD_CAT_ID": 32184, "ELEMENT_SET_NO": 999, "REV_AT_EPOCH": 98379, "BSTAR": 0.002070827, "MEAN_MOTION_DOT": 0.0010296, "MEAN_MOTION_DDOT": 0}, "tle": {"line1": "1 32184U 99025CUE 25345.13870527  .00102960  00000+0  20708-2 0  9991", "line2": "2 32184  98.1196 124.2855 0071232 353.8696   6.1670 15.43488956983795"}}, "geometry": {"type": "Point", "coordinates": [120.59929854455216, 27.54212332145668]}}, {"type": "Feature", "properties": {"norad_id": 32185, "name": "FENGYUN 1C DEB", "group": "fengyun-1c-debris", "lat": 47.49057690979174, "lon": -178.08601947665036, "alt_km": 453.9663595115935, "timestamp": "2025-12-11T15:53:39.828432+00:00", "meta": {"OBJECT_NAME": "FENGYUN 1C DEB", "OBJECT_ID": "1999-025CUF", "EPOCH": "2025-12-10T20:31:01.575840", "MEAN_MOTION": 15.0316595, "ECCENTRICITY": 0.01630715, "INCLINATION": 98.9039, "RA_OF_ASC_NODE": 190.8339, "ARG_OF_PERICENTER": 21.3055, "MEAN_ANOMALY": 339.4853, "EPHEMERIS_TYPE": 0, "CLASSIFICATION_TYPE": "U", "NORAD_CAT_ID": 32185, "ELEMENT_SET_NO": 999, "REV_AT_EPOCH": 94987, "BSTAR": 0.0042208827, "MEAN_MOTION_DOT": 0.00077008, "MEAN_MOTION_DDOT": 0}, "tle": {"line1": "1 32185U 99025CUF 25344.85487935  .00077008  00000+0  42209-2 0  9991", "line2": "2 32185  98.9039 190.8339 0163071  21.3055 339.4853 15.03165950949873"}}, "geometry": {"type": "Point", "coordinates": [-178.08601947665036, 47.49057690979174]}}, {"type": "Feature", "properties": {"norad_id": 32186, "name": "FENGYUN 1C DEB", "group": "fengyun-1c-debris", "lat": 72.9867039367208, "lon": -110.24322897761839, "alt_km": 996.9684071295987, "timestamp": "2025-12-11T15:53:39.828442+00:00", "meta": {"OBJECT_NAME": "FENGYUN 1C DEB", "OBJECT_ID": "1999-025CUG", "EPOCH": "2025-12-09T09:24:32.827968", "MEAN_MOTION": 13.76498707, "ECCENTRICITY": 0.02746783, "INCLINATION": 99.6097, "RA_OF_ASC_NODE": 33.8435, "ARG_OF_PERICENTER": 209.4403, "MEAN_ANOMALY": 173.7978, "EPHEMERIS_TYPE": 0, "CLASSIFICATION_TYPE": "U", "NORAD_CAT_ID": 32186, "ELEMENT_SET_NO": 999, "REV_AT_EPOCH": 62564, "BSTAR": 0.0015629135, "MEAN_MOTION_DOT": 1.972e-05, "MEAN_MOTION_DDOT": 0}, "tle": {"line1": "1 32186U 99025CUG 25343.39204662  .00001972  00000+0  15629-2 0  9997", "line2": "2 32186  99.6097  33.8435 0274678 209.4403 173.7978 13.76498707625641"}}, "geometry": {"type": "Point", "coordinates": [-110.24322897761839, 72.9867039367208]}}, {"type": "Feature", "properties": {"norad_id": 32187, "name": "FENGYUN 1C DEB", "group": "fengyun-1c-debris", "lat": 10.937958966258487, "lon": 62.81257030489061, "alt_km": 1230.096663910831, "timestamp": "2025-12-11T15:53:39.828452+00:00", "meta": {"OBJECT_NAME": "FENGYUN 1C DEB", "OBJECT_ID": "1999-025CUH", "EPOCH": "2025-12-09T10:48:10.080288", "MEAN_MOTION": 13.50492866, "ECCENTRICITY": 0.02943458, "INCLINATION": 99.5055, "RA_OF_ASC_NODE": 62.5525, "ARG_OF_PERICENTER": 154.1368, "MEAN_ANOMALY": 269.9368, "EPHEMERIS_TYPE": 0, "CLASSIFICATION_TYPE": "U", "NORAD_CAT_ID": 32187, "ELEMENT_SET_NO": 999, "REV_AT_EPOCH": 66214, "BSTAR": 0.00085725391, "MEAN_MOTION_DOT": 6.79e-06, "MEAN_MOTION_DDOT": 0}, "tle": {"line1": "1 32187U 99025CUH 25343.45011667  .00000679  00000+0  85725-3 0  9994", "line2": "2 32187  99.5055  62.5525 0294345 154.1368 269.9368 13.50492866662142"}}, "geometry": {"type": "Point", "coordinates": [62.81257030489061, 10.937958966258487]}}, {"type": "Feature", "properties": {"norad_id": 32191, "name": "FENGYUN 1C DEB", "group": "fengyun-1c-debris", "lat": -14.816719345014882, "lon": -140.549376656604, "alt_km": 745.4953465806366, "timestamp": "2025-12-11T15:53:39.828463+00:00", "meta": {"OBJECT_NAME": "FENGYUN 1C DEB", "OBJECT_ID": "1999-025CUM", "EPOCH": "2025-12-07T21:40:40.928736", "MEAN_MOTION": 14.25144424, "ECCENTRICITY": 0.00936775, "INCLINATION": 98.7071, "RA_OF_ASC_NODE": 38.0439, "ARG_OF_PERICENTER": 200.4354, "MEAN_ANOMALY": 159.3067, "EPHEMERIS_TYPE": 0, "CLASSIFICATION_TYPE": "U", "NORAD_CAT_ID": 32191, "ELEMENT_SET_NO": 999, "REV_AT_EPOCH": 64432, "BSTAR": 0.0020420613, "MEAN_MOTION_DOT": 4.976e-05, "MEAN_MOTION_DDOT": 0}, "tle": {"line1": "1 32191U 99025CUM 25341.90325149  .00004976  00000+0  20421-2 0  9995", "line2": "2 32191  98.7071  38.0439 0093677 200.4354 159.3067 14.25144424644328"}}, "geometry": {"type": "Point", "coordinates": [-140.549376656604, -14.816719345014882]}}, {"type": "Feature", "properties": {"norad_id": 32192, "name": "FENGYUN 1C DEB", "group": "fengyun-1c-debris", "lat": 42.351786529016046, "lon": 44.60373404485017, "alt_km": 833.7627117480633, "timestamp": "2025-12-11T15:53:39.828473+00:00", "meta": {"OBJECT_NAME": "FENGYUN 1C DEB", "OBJECT_ID": "1999-025CUN", "EPOCH": "2025-12-10T02:45:21.500352", "MEAN_MOTION": 13.82509568, "ECCENTRICITY": 0.01815944, "INCLINATION": 98.6529, "RA_OF_ASC_NODE": 215.2024, "ARG_OF_PERICENTER": 169.561, "MEAN_ANOMALY": 190.9397, "EPHEMERIS_TYPE": 0, "CLASSIFICATION_TYPE": "U", "NORAD_CAT_ID": 32192, "ELEMENT_SET_NO": 999, "REV_AT_EPOCH": 92676, "BSTAR": 0.00038665557, "MEAN_MOTION_DOT": 4.37e-06, "MEAN_MOTION_DDOT": 0}, "tle": {"line1": "1 32192U 99025CUN 25344.11483218  .00000437  00000+0  38666-3 0  9993", "line2": "2 32192  98.6529 215.2024 0181594 169.5610 190.9397 13.82509568926765"}}, "geometry": {"type": "Point", "coordinates": [44.60373404485017, 42.351786529016046]}}, {"type": "Feature", "properties": {"norad_id": 32195, "name": "FENGYUN 1C DEB", "group": "fengyun-1c-debris", "lat": -59.034905323674195, "lon": 3.016469412150912, "alt_km": 821.9130142907825, "timestamp": "2025-12-11T15:53:39.828483+00:00", "meta": {"OBJECT_NAME": "FENGYUN 1C DEB", "OBJECT_ID": "1999-025CUR", "EPOCH": "2025-12-04T06:51:46.584576", "MEAN_MOTION": 14.08440247, "ECCENTRICITY": 0.0068891, "INCLINATION": 98.773, "RA_OF_ASC_NODE": 340.9294, "ARG_OF_PERICENTER": 324.3515, "MEAN_ANOMALY": 35.3064, "EPHEMERIS_TYPE": 0, "CLASSIFICATION_TYPE": "U", "NORAD_CAT_ID": 32195, "ELEMENT_SET_NO": 999, "REV_AT_EPOCH": 63863, "BSTAR": 0.0010039, "MEAN_MOTION_DOT": 1.715e-05, "MEAN_MOTION_DDOT": 0}, "tle": {"line1": "1 32195U 99025CUR 25338.28595584  .00001715  00000+0  10039-2 0  9990", "line2": "2 32195  98.7730 340.9294 0068891 324.3515  35.3064 14.08440247638633"}}, "geometry": {"type": "Point", "coordinates": [3.016469412150912, -59.034905323674195]}}, {"type": "Feature", "properties": {"norad_id": 32197, "name": "FENGYUN 1C DEB", "group": "fengyun-1c-debris", "lat": -30.609630518224165, "lon": -99.96709530618246, "alt_km": 799.025679288733, "timestamp": "2025-12-11T15:53:39.828508+00:00", "meta": {"OBJECT_NAME": "FENGYUN 1C DEB", "OBJECT_ID": "1999-025CUT", "EPOCH": "2025-12-10T12:24:38.958912", "MEAN_MOTION": 14.32658071, "ECCENTRICITY": 0.01611781, "INCLINATION": 98.901, "RA_OF_ASC_NODE": 253.5369, "ARG_OF_PERICENTER": 236.4218, "MEAN_ANOMALY": 307.9774, "EPHEMERIS_TYPE": 0, "CLASSIFICATION_TYPE": "U", "NORAD_CAT_ID": 32197, "ELEMENT_SET_NO": 999, "REV_AT_EPOCH": 94391, "BSTAR": 0.0006387504, "MEAN_MOTION_DOT": 1.954e-05, "MEAN_MOTION_DDOT": 0}, "tle": {"line1": "1 32197U 99025CUT 25344.51711758  .00001954  00000+0  63875-3 0  9990", "line2": "2 32197  98.9010 253.5369 0161178 236.4218 307.9774 14.32658071943914"}}, "geometry": {"type": "Point", "coordinates": [-99.96709530618246, -30.609630518224165]}}, {"type": "Feature", "properties": {"norad_id": 32198, "name": "FENGYUN 1C DEB", "group": "fengyun-1c-debris", "lat": 63.337054200815764, "lon": 115.63684806495948, "alt_km": 899.7864210849748, "timestamp": "2025-12-11T15:53:39.828519+00:00", "meta": {"OBJECT_NAME": "FENGYUN 1C DEB", "OBJECT_ID": "1999-025CUU", "EPOCH": "2025-12-11T03:39:24.233184", "MEAN_MOTION": 14.08810013, "ECCENTRICITY": 0.00944941, "INCLINATION": 98.343, "RA_OF_ASC_NODE": 132.1567, "ARG_OF_PERICENTER": 297.2193, "MEAN_ANOMALY": 61.9373, "EPHEMERIS_TYPE": 0, "CLASSIFICATION_TYPE": "U", "NORAD_CAT_ID": 32198, "ELEMENT_SET_NO": 999, "REV_AT_EPOCH": 56923, "BSTAR": 0.0023788131, "MEAN_MOTION_DOT": 4.239e-05, "MEAN_MOTION_DDOT": 0}, "tle": {"line1": "1 32198U 99025CUU 25345.15236381  .00004239  00000+0  23788-2 0  9993", "line2": "2 32198  98.3430 132.1567 0094494 297.2193  61.9373 14.08810013569230"}}, "geometry": {"type": "Point", "coordinates": [115.63684806495948, 63.337054200815764]}}, {"type": "Feature", "properties": {"norad_id": 32200, "name": "FENGYUN 1C DEB", "group": "fengyun-1c-debris", "lat": -49.61596622060584, "lon": 45.13233066057488, "alt_km": 819.4529872106286, "timestamp": "2025-12-11T15:53:39.828529+00:00", "meta": {"OBJECT_NAME": "FENGYUN 1C DEB", "OBJECT_ID": "1999-025CUW", "EPOCH": "2025-12-10T09:35:54.874752", "MEAN_MOTION": 14.15684712, "ECCENTRICITY": 0.00395277, "INCLINATION": 98.7918, "RA_OF_ASC_NODE": 33.4043, "ARG_OF_PERICENTER": 296.5903, "MEAN_ANOMALY": 63.1223, "EPHEMERIS_TYPE": 0, "CLASSIFICATION_TYPE": "U", "NORAD_CAT_ID": 32200, "ELEMENT_SET_NO": 999, "REV_AT_EPOCH": 94330, "BSTAR": 0.0014384186, "MEAN_MOTION_DOT": 2.798e-05, "MEAN_MOTION_DDOT": 0}, "tle": {"line1": "1 32200U 99025CUW 25344.39994068  .00002798  00000+0  14384-2 0  9995", "line2": "2 32200  98.7918  33.4043 0039527 296.5903  63.1223 14.15684712943303"}}, "geometry": {"type": "Point", "coordinates": [45.13233066057488, -49.61596622060584]}}]}